STARLINK-6153           
1 56384U 23061L   24128.04025767  .00001167  00000+0  10150-3 0  9990
2 56384  43.0042 246.8049 0001642 281.0215  79.0443 15.02532065 56014
STARLINK-6173           
1 56385U 23061M   24128.04470103  .00004838  00000+0  37285-3 0  9995
2 56385  43.0033 246.8380 0001731 264.8121  95.2524 15.02546854 56018
STARLINK-5836           
1 56386U 23061N   24128.03359666  .00003986  00000+0  30987-3 0  9990
2 56386  43.0036 246.7548 0002441 274.7673  85.2890 15.02551844 56018
STARLINK-6178           
1 56387U 23061P   24128.04135998  .00025127  00000+0  18655-2 0  9990
2 56387  43.0022 246.8126 0001966 267.1180  92.9437 15.02595342 56010
STARLINK-6176           
1 56388U 23061Q   24127.62585300  .00003424  00000+0  26834-3 0  9995
2 56388  43.0036 248.8535 0001304 272.7938  87.2755 15.02544453 55668
STARLINK-6145           
1 56389U 23061R   24128.03692517  .00001415  00000+0  11977-3 0  9991
2 56389  43.0047 246.7804 0001735 270.0149  90.0495 15.02546161 56011
STARLINK-6300           
1 56390U 23061S   24127.76473913  .00001058  00000+0  93388-4 0  9999
2 56390  43.0034 236.0463 0002072 271.1761  88.8843 15.02541852 55821
STARLINK-6298           
1 56391U 23061T   24128.03027426  .00002593  00000+0  20692-3 0  9997
2 56391  43.0032 246.7290 0000636 267.6270  92.4500 15.02541389 56013
STARLINK-6301           
1 56392U 23061U   24127.63400933  .00005563  00000+0  42644-3 0  9992
2 56392  43.0032 236.7855 0001555 266.6309  93.4355 15.02544095 55805
STARLINK-6303           
1 56393U 23061V   24127.82750814  .00004196  00000+0  32543-3 0  9998
2 56393  43.0028 247.7851 0001579 267.8934  92.1728 15.02545571 55699
STARLINK-6305           
1 56394U 23061W   24127.75585805  .00001252  00000+0  10773-3 0  9998
2 56394  43.0032 235.9765 0001981 259.7241 100.3378 15.02542938 55828
STARLINK-6273           
1 56395U 23061X   24128.02509691  .00003422  00000+0  26812-3 0  9991
2 56395  43.0020 234.5596 0001220 289.8335  70.2376 15.02552655 56154
STARLINK-6302           
1 56396U 23061Y   24127.75030823  .00006010  00000+0  45943-3 0  9999
2 56396  43.0017 235.9362 0001548 287.2431  72.8242 15.02548590 50954
STARLINK-6271           
1 56397U 23061Z   24128.02731747  .00006132  00000+0  46841-3 0  9997
2 56397  43.0033 234.5764 0001118 310.1636  49.9108 15.02549480 56153
STARLINK-6288           
1 56398U 23061AA  24127.74697965  .00014257  00000+0  10678-2 0  9994
2 56398  43.0031 235.9106 0001463 278.6056  81.4621 15.02555351 55822
STARLINK-6277           
1 56399U 23061AB  24128.01844517  .00001951  00000+0  15942-3 0  9990
2 56399  43.0003 234.5084 0000514 327.8853  32.1957 15.02536362 56153
STARLINK-6267           
1 56400U 23061AC  24127.60847471  .00000515  00000+0  53234-4 0  9991
2 56400  43.0041 236.5918 0001887 278.7335  81.3294 15.02540911 55805
STARLINK-6256           
1 56401U 23061AD  24127.94888727  .00001985  00000+0  16192-3 0  9991
2 56401  43.0023 221.8378 0001514 275.2306  84.8363 15.02548667 56295
STARLINK-6284           
1 56403U 23061AF  24127.61069653  .00002010  00000+0  16384-3 0  9999
2 56403  43.0041 236.6077 0002057 265.1058  94.9549 15.02541229 55803
STARLINK-6287           
1 56404U 23061AG  24127.59959789  .00000573  00000+0  57475-4 0  9994
2 56404  43.0019 236.5202 0001575 274.6265  85.4397 15.02538138 55808
STARLINK-6285           
1 56405U 23061AH  24127.73811284  .00002391  00000+0  19198-3 0  9997
2 56405  43.0018 235.8427 0001234 267.9035  92.1666 15.02539184 55829
STARLINK-6283           
1 56406U 23061AJ  24127.59071688  .00016126  00000+0  12052-2 0  9990
2 56406  43.0032 236.4559 0001533 262.4521  97.6147 15.02564053 56098
STARLINK-6282           
1 56407U 23061AK  24127.60179376  .00013211  00000+0  99002-3 0  9999
2 56407  43.0036 236.5413 0001303 265.1967  94.8726 15.02581652 55806
STARLINK-6289           
1 56408U 23061AL  24127.32258472  .00007681  00000+0  58282-3 0  9993
2 56408  43.0021 237.8691 0001158 257.0691 103.0022 15.02550375 55760
STARLINK-6241           
1 56409U 23061AM  24127.72921952  .00022564  00000+0  16791-2 0  9993
2 56409  43.0036 235.7773 0001445 278.0609  82.0069 15.02557033 55828
STARLINK-6281           
1 56410U 23061AN  24127.98070149  .00000812  00000+0  75203-4 0  9993
2 56410  43.0031 234.2192 0001484 261.9432  98.1242 15.02540315 56155
STARLINK-6279           
1 56411U 23061AP  24127.72699857  .00011747  00000+0  88261-3 0  9995
2 56411  43.0033 235.7588 0001440 269.0543  91.0135 15.02561690 55822
STARLINK-6278           
1 56412U 23061AQ  24127.57628514  .00003607  00000+0  28192-3 0  9994
2 56412  43.0044 236.3463 0001556 264.8014  95.2650 15.02540012 55809
STARLINK-6258           
1 56413U 23061AR  24127.65164378  .00005842  00000+0  44708-3 0  9991
2 56413  43.0037 236.0525 0001550 265.3424  94.7242 15.02545785 55817
STARLINK-5136           
1 56414U 23061AS  24127.63832999  .00004471  00000+0  34581-3 0  9996
2 56414  43.0025 235.9485 0001302 262.9763  97.0931 15.02539651 55818
STARLINK-6268           
1 56415U 23061AT  24127.64610148  .00002357  00000+0  18946-3 0  9996
2 56415  43.0033 236.0093 0001407 266.4198  93.6484 15.02537666 55811
STARLINK-6260           
1 56416U 23061AU  24127.95554598  .00004637  00000+0  35795-3 0  9991
2 56416  43.0031 221.8872 0001383 278.9757  81.0929 15.02549990 56290
STARLINK-6261           
1 56417U 23061AV  24127.57295776  .00004198  00000+0  32556-3 0  9994
2 56417  43.0038 236.3199 0001590 275.2725  84.7936 15.02545332 55806
STARLINK-5356           
1 56418U 23061AW  24127.94111799  .00006602  00000+0  50309-3 0  9996
2 56418  43.0028 221.7792 0001561 267.4996  92.5667 15.02556210 56293
STARLINK-5350           
1 56419U 23061AX  24127.63610072  .00005746  00000+0  43996-3 0  9993
2 56419  43.0042 235.9338 0001736 275.8957  84.1688 15.02549707 55817
STARLINK-6272           
1 56420U 23061AY  24127.53893033  .00002520  00000+0  20160-3 0  9999
2 56420  43.0030 223.9206 0001361 259.0665 101.0024 15.02531369 55943
STARLINK-6270           
1 56421U 23061AZ  24127.95776623  .00008559  00000+0  64752-3 0  9994
2 56421  43.0035 221.9006 0001506 276.1562  83.9109 15.02557274 56296
STARLINK-6236           
1 56422U 23061BA  24127.53337627  .00002809  00000+0  22286-3 0  9994
2 56422  43.0035 223.8804 0001501 275.9443  84.1229 15.02545556 55941
STARLINK-6239           
1 56423U 23061BB  24127.60207153  .00004385  00000+0  33937-3 0  9999
2 56423  43.0028 223.5348 0001268 294.1198  65.9511 15.02549462 55956
STARLINK-6242           
1 56424U 23061BC  24127.46023825  .00006821  00000+0  51934-3 0  9990
2 56424  43.0028 224.1895 0001488 266.1160  93.9512 15.02550270 55932
STARLINK-6224           
1 56425U 23061BD  24127.59651992  .00002676  00000+0  21306-3 0  9991
2 56425  43.0033 223.4932 0001262 273.2083  86.8615 15.02545191 55959
STARLINK-5352           
1 56426U 23061BE  24127.97219403  .00002675  00000+0  21297-3 0  9999
2 56426  43.0036 221.9942 0001588 263.4030  96.6632 15.02547407 56299
STARLINK-5724           
1 56427U 23061BF  24128.22700658  .00004391  00000+0  33982-3 0  9997
2 56427  43.0026 220.4695 0001595 279.6432  80.4230 15.02547162 56339
STARLINK-6238           
1 56428U 23061BG  24127.58542069  .00011738  00000+0  88201-3 0  9993
2 56428  43.0026 223.4071 0001561 265.2935  94.7729 15.02559179 56245
STARLINK-6264           
1 56429U 23061BH  24127.58209715  .00004198  00000+0  32563-3 0  9994
2 56429  43.0031 223.3799 0001407 265.3268  94.7414 15.02536534 55955
STARLINK-5990           
1 56448U 23064A   24127.94644390  .00000850  00000+0  78982-4 0  9997
2 56448  70.0009  38.2335 0002785 267.9243  92.1597 14.98336574 54624
STARLINK-5993           
1 56449U 23064B   24128.16743390  .00002462  00000+0  21398-3 0  9992
2 56449  70.0031  37.8004 0002792 269.6190  90.4649 14.98345899 55019
STARLINK-5970           
1 56450U 23064C   24127.94227003  .00000252  00000+0  28870-4 0  9995
2 56450  70.0006  38.2178 0002950 267.6264  92.4557 14.98334819 54622
STARLINK-5985           
1 56451U 23064D   24128.16325274  .00001774  00000+0  15637-3 0  9996
2 56451  70.0008  37.7856 0002870 263.9529  96.1303 14.98340866 55019
STARLINK-5986           
1 56452U 23064E   24128.15907975  .00001114  00000+0  10114-3 0  9993
2 56452  70.0011  37.7723 0002963 263.6586  96.4236 14.98340060 55014
STARLINK-5935           
1 56453U 23064F   24127.95463192  .00000881  00000+0  81612-4 0  9991
2 56453  70.0010  38.2618 0002882 271.2208  88.8621 14.98335102 54629
STARLINK-5959           
1 56454U 23064G   24128.06605338  .00194160  00000+0  15239-1 0  9998
2 56454  69.9997  37.8505 0018683 213.5695 146.4283 14.99694374 55004
STARLINK-5987           
1 56455U 23064H   24128.19662062  .00000357  00000+0  37688-4 0  9999
2 56455  70.0011  37.5016 0002876 269.2378  90.8452 14.98337642 55025
STARLINK-5995           
1 56456U 23064J   24127.94210537  .00002264  00000+0  19739-3 0  9993
2 56456  70.0034  38.2181 0002948 269.7892  90.2929 14.98345691 54629
STARLINK-5994           
1 56457U 23064K   24128.25001157 -.00021770  00000+0 -18228-2 0  9991
2 56457  70.0025  37.3918 0003229 274.7180 349.8965 14.98319879 55024
STARLINK-6050           
1 56458U 23064L   24127.94628197  .00000236  00000+0  27520-4 0  9995
2 56458  70.0019  38.2326 0002462 244.7427 115.3477 14.98335034 54620
STARLINK-6048           
1 56459U 23064M   24127.91305840  .00001130  00000+0  10246-3 0  9990
2 56459  70.0020  38.1174 0002714 269.4381  90.6467 14.98335474 54628
STARLINK-6047           
1 56460U 23064N   24128.19245203 -.00001114  00000+0 -85627-4 0  9999
2 56460  70.0014  37.4878 0002644 263.5897  96.4961 14.98324894 55027
STARLINK-6037           
1 56461U 23064P   24127.90871837  .00002901  00000+0  25076-3 0  9990
2 56461  70.0008  38.0983 0003034 263.9308  96.1505 14.98341545 54628
